OUFTI-1                 
1 41458U 16025C   22356.45485622  .00016808  00000+0  62331-3 0  9990
2 41458  98.1895 178.2113 0127353 344.1452  15.5809 15.20317409366084
E-ST@R-II               
1 41459U 16025D   22356.43694140  .00016048  00000+0  61723-3 0  9996
2 41459  98.1913 176.3472 0132073 349.7506  10.1079 15.18660208365971
AAUSAT 4                
1 41460U 16025E   22356.49651109  .00034501  00000+0  10584-2 0  9994
2 41460  98.1768 184.7154 0104998 318.1611  93.9471 15.28345426366567
AIST-2D (RS-48)         
1 41465U 16026B   22356.60503028  .00021005  00000+0  41137-3 0  9993
2 41465  97.0254 226.9359 0008699 152.9592 290.9449 15.47372093372561
NUSAT-1 (FRESCO)        
1 41557U 16033B   22356.57862067  .00025599  00000+0  62361-3 0  9994
2 41557  97.3901  95.3162 0010644  64.7554  60.0599 15.40844836366282
NUSAT-2 (BATATA)        
1 41558U 16033C   22356.77159081  .00023868  00000+0  54819-3 0  9998
2 41558  97.4145 102.3184 0010130  54.0587  98.6040 15.42640995366612
CARTOSAT-2C             
1 41599U 16040A   22356.59471661  .00004767  00000+0  22889-3 0  9991
2 41599  97.4639  54.2860 0012455 244.9739 252.5414 15.19271474360494
SATHYABAMASAT           
1 41600U 16040B   22356.39985351  .00029768  00000+0  71580-3 0  9998
2 41600  97.1944  44.9867 0009217 154.4190 205.7515 15.41221882361759
LAPAN-A3                
1 41603U 16040E   22356.93372983  .00002119  00000+0  97638-4 0  9996
2 41603  97.1866  25.5878 0011830 211.5301 268.3977 15.21265086360685
BIROS                   
1 41604U 16040F   22356.37920701  .00005863  00000+0  23028-3 0  9992
2 41604  97.1879  33.6493 0011091 179.3175 180.8081 15.26009973361100
SWAYAM                  
1 41607U 16040J   22356.11071120  .00029087  00000+0  74299-3 0  9999
2 41607  97.1896  42.5381 0009548 156.6797 203.4884 15.39383841361565
BEESAT-4                
1 41619U 16040W   22356.38632505  .00022646  00000+0  60964-3 0  9999
2 41619  97.1915  42.4572 0008377 150.6997 209.4720 15.37827317349533
3CAT-2                  
1 41732U 16051B   22356.72917677  .00021728  00000+0  56612-3 0  9996
2 41732  97.3896 280.2991 0010256 349.3928  69.7330 15.38829754354220
PRATHAM                 
1 41783U 16059A   22356.59016652  .00000593  00000+0  12240-3 0  9994
2 41783  97.8914  30.3994 0032090 300.5713  59.2325 14.63547698333147
ALSAT 1N                
1 41789U 16059G   22356.74963189  .00000839  00000+0  16481-3 0  9997
2 41789  97.8942  35.5607 0026692 281.3075  78.5131 14.64924025333435
LISHUI 1-01             
1 41845U 16066E   22356.57211341  .00168028  00000+0  10909-1 0  9997
2 41845  98.7171 144.9092 0149506 189.2936 170.4165 14.98547144324706
CARTOSAT-2D             
1 41948U 17008A   22356.40391012  .00004923  00000+0  23611-3 0  9993
2 41948  97.4422  53.6106 0006832  37.8739 322.3007 15.19330515324338
NAYIF-1 (EO-88)         
1 42017U 17008BX  22356.66107576  .00029760  00000+0  67842-3 0  9999
2 42017  97.2462  60.6953 0002738 299.9166  60.1810 15.42868569326008
ZHUHAI-1 02 (CAS-4B)    
1 42759U 17034B   22356.52310336  .00007113  00000+0  40074-3 0  9992
2 42759  43.0184  14.9211 0009692  31.8747 131.3128 15.13622047304831
ZHUHAI-1 01 (CAS-4A)    
1 42761U 17034D   22356.54313844  .00006830  00000+0  38427-3 0  9998
2 42761  43.0186  13.4574 0010071  34.5197 102.4861 15.13719672304849
UCLSAT                  
1 42765U 17036A   22356.36260564  .00018161  00000+0  53150-3 0  9994
2 42765  97.1731  33.4894 0009029  22.3855 337.7782 15.35256138306623
NIUSAT                  
1 42766U 17036B   22356.34699973  .00012519  00000+0  43043-3 0  9994
2 42766  97.1811  27.6521 0013214  26.3398 333.8512 15.30136432305493
CARTOSAT-2E             
1 42767U 17036C   22356.71344604  .00004947  00000+0  23755-3 0  9998
2 42767  97.4322  54.5013 0009082  84.0292  69.4218 15.19270784304941
LITUANICASAT-2          
1 42768U 17036D   22356.37340900  .00055114  00000+0  97924-3 0  9997
2 42768  97.1787  38.9033 0007502 355.7561   4.3626 15.49984913306193
AALTO-1                 
1 42775U 17036L   22356.58127107  .00009083  00000+0  32826-3 0  9994
2 42775  97.1761  27.3930 0012388  26.4558 333.7313 15.28602018305480
URSA MAIOR              
1 42776U 17036M   22356.34549102  .00010917  00000+0  38299-3 0  9990
2 42776  97.1776  28.1195 0012018  25.6934 334.4902 15.29527758305499
COMPASS 2               
1 42777U 17036N   22356.42347851  .00032182  00000+0  76947-3 0  9997
2 42777  97.1797  36.9183 0008164   6.2804 353.8544 15.41387379306007
MAX VALIER SAT          
1 42778U 17036P   22356.33268875  .00013365  00000+0  45076-3 0  9997
2 42778  97.1826  31.1417 0010610  26.5258 333.6524 15.30776405305604
PEGASUS                 
1 42784U 17036V   22356.35303198  .00016343  00000+0  50085-3 0  9999
2 42784  97.1758  32.4994 0009754  25.6209 334.5516 15.33814494305764
NUDTSAT                 
1 42787U 17036Y   22356.96181755  .00044401  00000+0  98873-3 0  9995
2 42787  97.1770  39.0789 0007008   7.4162 352.7189 15.43463554306062
SUCHAI                  
1 42788U 17036Z   22356.06598463  .00023630  00000+0  65330-3 0  9998
2 42788  97.1757  34.4992 0008678  20.8647 339.2950 15.36989445305939
SKCUBE                  
1 42789U 17036AA  22356.38436563  .00018899  00000+0  54830-3 0  9990
2 42789  97.1758  33.9884 0008941  21.1265 339.0347 15.35523541305857
VZLUSAT-1               
1 42790U 17036AB  22356.35039822  .00036833  00000+0  83378-3 0  9993
2 42790  97.1771  38.3815 0006921  10.5189 349.6202 15.43015056306113
ROBUSTA 1B              
1 42792U 17036AD  22356.38321647  .00020406  00000+0  57317-3 0  9990
2 42792  97.1752  34.7421 0008339  20.9238 339.2346 15.36526496305910
D-SAT                   
1 42794U 17036AF  22356.73376385  .00002520  00000+0  21168-3 0  9992
2 42794  97.4560 352.3732 0121001 173.6366 186.6427 14.93629852299600
NORSAT 2                
1 42828U 17042D   22356.52848097  .00003650  00000+0  34889-3 0  9997
2 42828  97.4061 202.2652 0015356  92.9355 267.3623 14.93738012296234
TECHNOSAT               
1 42829U 17042E   22356.59386344  .00002166  00000+0  21610-3 0  9996
2 42829  97.3981 199.5934 0015454  96.6481 263.6499 14.92415168296149
2017-042F               
1 42830U 17042F   22356.56773171  .00006320  00000+0  55137-3 0  9990
2 42830  97.4107 205.3124 0013942  81.7616 278.5187 14.97094773296402
FLYING LAPTOP           
1 42831U 17042G   22356.51948979  .00001950  00000+0  19600-3 0  9995
2 42831  97.4002 199.8652 0015224  97.6730 262.6239 14.92227396296134
CORVUS BC2              
1 42846U 17042X   22356.52594960  .00002287  00000+0  22209-3 0  9992
2 42846  97.3982 203.0146 0010947  86.7011 273.5462 14.93484395296347
CORVUS BC1              
1 42847U 17042Y   22356.52785697  .00002425  00000+0  23479-3 0  9996
2 42847  97.3983 203.3507 0010659  85.8079 274.4360 14.93562869296358
CZ-4C R/B               
1 43012U 17072C   22356.10418808  .00000355  00000+0  82675-4 0  9999
2 43012  98.6746  40.0736 0128069 103.3696 258.1815 14.56478687271170
RADFXSAT (FOX-1B)       
1 43017U 17073E   22356.26233016  .00005966  00000+0  44149-3 0  9994
2 43017  97.6532 242.6966 0241840 292.2269  65.3453 14.83050384274932
EAGLESAT 1              
1 43018U 17073F   22356.47032365  .00009185  00000+0  64208-3 0  9997
2 43018  97.6579 245.5011 0230756 283.0093  74.5452 14.86434625274998
INS-1C                  
1 43116U 18004F   22356.46003630  .00018205  00000+0  52785-3 0  9993
2 43116  97.3602  71.5840 0007994  48.5586 311.6343 15.35562072275128
FLOCK 3P'-3             
1 43119U 18004J   22356.15893819  .00032544  00000+0  10340-2 0  9990
2 43119  97.3581  68.2846 0008561  63.1334 297.0782 15.32536219274899
FLOCK 3P'-2             
1 43120U 18004K   22356.16531197  .00023203  00000+0  77106-3 0  9997
2 43120  97.3590  67.7677 0009337  67.6376 292.5854 15.31154619274859
FLOCK 3P'-1             
1 43121U 18004L   22356.48809364  .00053174  00000+0  93811-3 0  9998
2 43121  97.3666  76.9664 0005506  30.2833 329.8735 15.50209613275411
FLOCK 3P'-4             
1 43122U 18004M   22356.47228593  .00021207  00000+0  69824-3 0  9996
2 43122  97.3597  68.2751 0008804  69.4855 290.7330 15.31476699274907
MICROMAS-2A             
1 43131U 18004W   22356.50160310  .00055036  00000+0  10048-2 0  9992
2 43131  97.3596  77.4462 0005397  37.3652 322.7974 15.49224838275546
PICSAT                  
1 43132U 18004X   22356.48485013  .00022915  00000+0  61863-3 0  9992
2 43132  97.3565  72.3690 0007808  51.5093 308.6851 15.37744599275237
CNUSAIL-1               
1 43133U 18004Y   22356.48327442  .00013896  00000+0  44100-3 0  9997
2 43133  97.3513  69.1867 0008832  60.5944 299.6179 15.32749070275050
2018-004Z               
1 43134U 18004Z   22356.48228157  .00018091  00000+0  52216-3 0  9990
2 43134  97.3545  71.1552 0008042  56.6703 303.5310 15.35705857275164
FOX-1D (AO-92)          
1 43137U 18004AC  22356.16218096  .00016700  00000+0  50913-3 0  9996
2 43137  97.3523  69.9527 0008248  60.5296 299.6769 15.33993137275070
STEP CUBE LAB           
1 43138U 18004AD  22356.45012913  .00040354  00000+0  86521-3 0  9995
2 43138  97.3607  75.9665 0006099  46.1819 313.9933 15.44616375275449
XIAOXIANG-2             
1 43155U 18008A   22356.61228207  .00012071  00000+0  58819-3 0  9995
2 43155  97.3291  49.0378 0014223 204.5840 309.9295 15.18396256271796
ZHOU ENLAI              
1 43156U 18008B   22356.57831424  .00012892  00000+0  62923-3 0  9994
2 43156  97.3337  48.9509 0011789 204.0292 293.4769 15.18349612271711
QUANTUTONG 1            
1 43158U 18008D   22356.42732994  .00010311  00000+0  52687-3 0  9992
2 43158  97.3294  46.3575 0011081 207.7599 164.7739 15.16808553271578
S-NET D                 
1 43186U 18014G   22356.29722158  .00003037  00000+0  25683-3 0  9999
2 43186  97.6498 258.3739 0012114  35.7917 324.4116 14.98742929267040
